{
  "links" : {
    "next" : "https://api.nasa.gov/neo/rest/v1/feed?start_date=2005-12-23&end_date=2005-12-23&detailed=true&api_key=t0TVs3DtDT2H8Oy2Zy8m2eVrNsAVKAexjcZXUckd",
    "prev" : "https://api.nasa.gov/neo/rest/v1/feed?start_date=2005-12-21&end_date=2005-12-21&detailed=true&api_key=t0TVs3DtDT2H8Oy2Zy8m2eVrNsAVKAexjcZXUckd",
    "self" : "https://api.nasa.gov/neo/rest/v1/feed?start_date=2005-12-22&end_date=2005-12-22&detailed=true&api_key=t0TVs3DtDT2H8Oy2Zy8m2eVrNsAVKAexjcZXUckd"
  },
  "element_count" : 8,
  "near_earth_objects" : {
    "2005-12-22" : [ {
      "links" : {
        "self" : "https://api.nasa.gov/neo/rest/v1/neo/3736499?api_key=t0TVs3DtDT2H8Oy2Zy8m2eVrNsAVKAexjcZXUckd"
      },
      "neo_reference_id" : "3736499",
      "name" : "(2015 XJ261)",
      "nasa_jpl_url" : "http://ssd.jpl.nasa.gov/sbdb.cgi?sstr=3736499",
      "absolute_magnitude_h" : 19.6,
      "estimated_diameter" : {
        "kilometers" : {
          "estimated_diameter_min" : 0.3195618867,
          "estimated_diameter_max" : 0.7145621017
        },
        "meters" : {
          "estimated_diameter_min" : 319.5618867213,
          "estimated_diameter_max" : 714.5621017269
        },
        "miles" : {
          "estimated_diameter_min" : 0.1985664891,
          "estimated_diameter_max" : 0.4440081677
        },
        "feet" : {
          "estimated_diameter_min" : 1048.4314204307,
          "estimated_diameter_max" : 2344.3639258298
        }
      },
      "is_potentially_hazardous_asteroid" : false,
      "close_approach_data" : [ {
        "close_approach_date" : "2005-12-22",
        "epoch_date_close_approach" : 1135238400000,
        "relative_velocity" : {
          "kilometers_per_second" : "7.7900125787",
          "kilometers_per_hour" : "28044.0452832248",
          "miles_per_hour" : "17425.4791372349"
        },
        "miss_distance" : {
          "astronomical" : "0.3722982796",
          "lunar" : "144.8240203857",
          "kilometers" : "55695028",
          "miles" : "34607288"
        },
        "orbiting_body" : "Earth"
      } ],
      "orbital_data" : {
        "orbit_id" : "38",
        "orbit_determination_date" : "2017-04-06 08:29:57",
        "orbit_uncertainty" : "0",
        "minimum_orbit_intersection" : ".357591",
        "jupiter_tisserand_invariant" : "3.906",
        "epoch_osculation" : "2458000.5",
        "eccentricity" : ".3327688927001275",
        "semi_major_axis" : "1.838269761609721",
        "inclination" : "16.37351846052427",
        "ascending_node_longitude" : "125.2544043205656",
        "orbital_period" : "910.3581654116584",
        "perihelion_distance" : "1.226550768554726",
        "perihelion_argument" : "287.2220376002417",
        "aphelion_distance" : "2.449988754664715",
        "perihelion_time" : "2458229.550662994798",
        "mean_anomaly" : "269.422201270815",
        "mean_motion" : ".3954487515770347",
        "equinox" : "J2000"
      }
    }, {
      "links" : {
        "self" : "https://api.nasa.gov/neo/rest/v1/neo/2483856?api_key=t0TVs3DtDT2H8Oy2Zy8m2eVrNsAVKAexjcZXUckd"
      },
      "neo_reference_id" : "2483856",
      "name" : "483856 (2005 YV55)",
      "nasa_jpl_url" : "http://ssd.jpl.nasa.gov/sbdb.cgi?sstr=2483856",
      "absolute_magnitude_h" : 20.2,
      "estimated_diameter" : {
        "kilometers" : {
          "estimated_diameter_min" : 0.2424124811,
          "estimated_diameter_max" : 0.5420507863
        },
        "meters" : {
          "estimated_diameter_min" : 242.4124811008,
          "estimated_diameter_max" : 542.0507863358
        },
        "miles" : {
          "estimated_diameter_min" : 0.1506280858,
          "estimated_diameter_max" : 0.3368146392
        },
        "feet" : {
          "estimated_diameter_min" : 795.3165644948,
          "estimated_diameter_max" : 1778.3819018419
        }
      },
      "is_potentially_hazardous_asteroid" : false,
      "close_approach_data" : [ {
        "close_approach_date" : "2005-12-22",
        "epoch_date_close_approach" : 1135238400000,
        "relative_velocity" : {
          "kilometers_per_second" : "2.9634273591",
          "kilometers_per_hour" : "10668.3384928127",
          "miles_per_hour" : "6628.8906596036"
        },
        "miss_distance" : {
          "astronomical" : "0.2753243423",
          "lunar" : "107.1011734009",
          "kilometers" : "41187936",
          "miles" : "25592996"
        },
        "orbiting_body" : "Earth"
      } ],
      "orbital_data" : {
        "orbit_id" : "33",
        "orbit_determination_date" : "2017-04-06 09:18:34",
        "orbit_uncertainty" : "0",
        "minimum_orbit_intersection" : ".223769",
        "jupiter_tisserand_invariant" : "3.779",
        "epoch_osculation" : "2458000.5",
        "eccentricity" : ".3921005200603436",
        "semi_major_axis" : "1.958763121262977",
        "inclination" : "5.9286317506836",
        "ascending_node_longitude" : "126.6351484626725",
        "orbital_period" : "1001.316343869188",
        "perihelion_distance" : "1.190731082740742",
        "perihelion_argument" : "308.2887506529961",
        "aphelion_distance" : "2.726795159785212",
        "perihelion_time" : "2457706.434668959538",
        "mean_anomaly" : "105.7243495751792",
        "mean_motion" : ".3595267391810698",
        "equinox" : "J2000"
      }
    } ]
  }
}